$$SOE
2460728.500000000, A.D. 2025-Feb-22 00:00:00.0000, -2.582442591306391E+08, 2.084669557114691E+05, 1.056129112383916E+08,
2460735.500000000, A.D. 2025-Mar-01 00:00:00.0000, -2.570043990376960E+08, -1.287784288315414E+07, 1.076242954118716E+08,
2460742.500000000, A.D. 2025-Mar-08 00:00:00.0000, -2.551897007196351E+08, -2.593537580711586E+07, 1.093949576811185E+08,
2460749.500000000, A.D. 2025-Mar-15 00:00:00.0000, -2.528037970380174E+08, -3.893488410933193E+07, 1.109207560043712E+08,
2460756.500000000, A.D. 2025-Mar-22 00:00:00.0000, -2.498516704383671E+08, -5.184721446689522E+07, 1.121981188732255E+08,
2460763.500000000, A.D. 2025-Mar-29 00:00:00.0000, -2.463396442989377E+08, -6.464338528949650E+07, 1.132240559363158E+08,
2460770.500000000, A.D. 2025-Apr-05 00:00:00.0000, -2.422753684897911E+08, -7.729466294911461E+07, 1.139961668288431E+08,
2460777.500000000, A.D. 2025-Apr-12 00:00:00.0000, -2.376678010779111E+08, -8.977263648975033E+07, 1.145126483184894E+08,
2460784.500000000, A.D. 2025-Apr-19 00:00:00.0000, -2.325271864049430E+08, -1.020492914260152E+08, 1.147722996579884E+08,
2460791.500000000, A.D. 2025-Apr-26 00:00:00.0000, -2.268650293405962E+08, -1.140970825669570E+08, 1.147745260819236E+08,
2460798.500000000, A.D. 2025-May-03 00:00:00.0000, -2.206940656981762E+08, -1.258890055703850E+08, 1.145193404395055E+08,
2460805.500000000, A.D. 2025-May-10 00:00:00.0000, -2.140282289020453E+08, -1.373986669378146E+08, 1.140073629692469E+08,
2460812.500000000, A.D. 2025-May-17 00:00:00.0000, -2.068826130049200E+08, -1.486003522131847E+08, 1.132398192188149E+08,
2460819.500000000, A.D. 2025-May-24 00:00:00.0000, -1.992734320319166E+08, -1.594690921725037E+08, 1.122185361031826E+08,
2460826.500000000, A.D. 2025-May-31 00:00:00.0000, -1.912179754009630E+08, -1.699807264402857E+08, 1.109459361081241E+08,
2460833.500000000, A.D. 2025-Jun-07 00:00:00.0000, -1.827345600035691E+08, -1.801119630899366E+08, 1.094250298018684E+08,
2460840.500000000, A.D. 2025-Jun-14 00:00:00.0000, -1.738424815071541E+08, -1.898404346742352E+08, 1.076594068528666E+08,
2460847.500000000, A.D. 2025-Jun-21 00:00:00.0000, -1.645619638735361E+08, -1.991447537586266E+08, 1.056532252220813E+08,
2460854.500000000, A.D. 2025-Jun-28 00:00:00.0000, -1.549141041928881E+08, -2.080045660141360E+08, 1.034111984472477E+08,
2460861.500000000, A.D. 2025-Jul-05 00:00:00.0000, -1.449208145880238E+08, -2.164005985499430E+08, 1.009385814010949E+08,
2460868.500000000, A.D. 2025-Jul-12 00:00:00.0000, -1.346047626242571E+08, -2.243147041444375E+08, 9.824115463688011E+07,
2460875.500000000, A.D. 2025-Jul-19 00:00:00.0000, -1.239893102830883E+08, -2.317299018243911E+08, 9.532520733057095E+07,
2460882.500000000, A.D. 2025-Jul-26 00:00:00.0000, -1.130984515393649E+08, -2.386304137483475E+08, 9.219751887632334E+07,
2460889.500000000, A.D. 2025-Aug-02 00:00:00.0000, -1.019567487295654E+08, -2.450016982971455E+08, 8.886533922125545E+07,
2460896.500000000, A.D. 2025-Aug-09 00:00:00.0000, -9.058926794462226E+07, -2.508304793315888E+08, 8.533636803313386E+07,
2460903.500000000, A.D. 2025-Aug-16 00:00:00.0000, -7.902151362684576E+07, -2.561047716447222E+08, 8.161873278773892E+07,
2460910.500000000, A.D. 2025-Aug-23 00:00:00.0000, -6.727936233069505E+07, -2.608139025765026E+08, 7.772096585039356E+07,
2460917.500000000, A.D. 2025-Aug-30 00:00:00.0000, -5.538899556544151E+07, -2.649485290814865E+08, 7.365198068125719E+07,
2460924.500000000, A.D. 2025-Sep-06 00:00:00.0000, -4.337683337829620E+07, -2.685006492719498E+08, 6.942104747801530E+07,
2460931.500000000, A.D. 2025-Sep-13 00:00:00.0000, -3.126947057938506E+07, -2.714636109585435E+08, 6.503776830740253E+07,
2460938.500000000, A.D. 2025-Sep-20 00:00:00.0000, -1.909361255522573E+07, -2.738321188931938E+08, 6.051205139373397E+07,
2460945.500000000, A.D. 2025-Sep-27 00:00:00.0000, -6.876009824261617E+06, -2.756022376834799E+08, 5.585408482610735E+07,
2460952.500000000, A.D. 2025-Oct-04 00:00:00.0000, 5.356606446234011E+06, -2.767713899333333E+08, 5.107431001521980E+07,
2460959.500000000, A.D. 2025-Oct-11 00:00:00.0000, 1.757758739807069E+07, -2.773383506590565E+08, 4.618339495531986E+07,
2460966.500000000, A.D. 2025-Oct-18 00:00:00.0000, 2.976042802062931E+07, -2.773032383730386E+08, 4.119220733777843E+07,
2460973.500000000, A.D. 2025-Oct-25 00:00:00.0000, 4.187882724390747E+07, -2.766675029509171E+08, 3.611178759472138E+07,
2460980.500000000, A.D. 2025-Nov-01 00:00:00.0000, 5.390674647572797E+07, -2.754339103998377E+08, 3.095332195580867E+07,
2460987.500000000, A.D. 2025-Nov-08 00:00:00.0000, 6.581846648611992E+07, -2.736065247022124E+08, 2.572811559542598E+07,
2460994.500000000, A.D. 2025-Nov-15 00:00:00.0000, 7.758864266921651E+07, -2.711906869494776E+08, 2.044756593337719E+07,
2461001.500000000, A.D. 2025-Nov-22 00:00:00.0000, 8.919235897767882E+07, -2.681929917091759E+08, 1.512313614661027E+07,
2461008.500000000, A.D. 2025-Nov-29 00:00:00.0000, 1.006051802806299E+08, -2.646212596546439E+08, 9.766329068109676E+06,
2461015.500000000, A.D. 2025-Dec-06 00:00:00.0000, 1.118032007856662E+08, -2.604845067552285E+08, 4.388661733578697E+06,
2461022.500000000, A.D. 2025-Dec-13 00:00:00.0000, 1.227630888922530E+08, -2.557929135560064E+08, -9.983596816107184E+05,
2461029.500000000, A.D. 2025-Dec-20 00:00:00.0000, 1.334621319210836E+08, -2.505577936863438E+08, -6.383264718148202E+06,
2461036.500000000, A.D. 2025-Dec-27 00:00:00.0000, 1.438782796108796E+08, -2.447915591747208E+08, -1.175464292193359E+07,
2461043.500000000, A.D. 2026-Jan-03 00:00:00.0000, 1.539901848991238E+08, -2.385076833540925E+08, -1.710116744090855E+07,
2461050.500000000, A.D. 2026-Jan-10 00:00:00.0000, 1.637772420807294E+08, -2.317206622037670E+08, -2.241161796027735E+07,
2461057.500000000, A.D. 2026-Jan-17 00:00:00.0000, 1.732196225640184E+08, -2.244459743831815E+08, -2.767490297674611E+07,
2461064.500000000, A.D. 2026-Jan-24 00:00:00.0000, 1.822983082849324E+08, -2.167000400866956E+08, -3.288008139240488E+07,
2461071.500000000, A.D. 2026-Jan-31 00:00:00.0000, 1.909951227864322E+08, -2.085001788546044E+08, -3.801638340460162E+07,
2461078.500000000, A.D. 2026-Feb-07 00:00:00.0000, 1.992927600294284E+08, -1.998645665025306E+08, -4.307323067230356E+07,
2461085.500000000, A.D. 2026-Feb-14 00:00:00.0000, 2.071748112327704E+08, -1.908121912925704E+08, -4.804025575763401E+07,
2461092.500000000, A.D. 2026-Feb-21 00:00:00.0000, 2.146257901978658E+08, -1.813628089071020E+08, -5.290732081886326E+07,
2461099.500000000, A.D. 2026-Feb-28 00:00:00.0000, 2.216311560881097E+08, -1.715368952251124E+08, -5.766453536051024E+07,
2461106.500000000, A.D. 2026-Mar-07 00:00:00.0000, 2.281773316376747E+08, -1.613555989838753E+08, -6.230227301158934E+07,
2461113.500000000, A.D. 2026-Mar-14 00:00:00.0000, 2.342517195956080E+08, -1.508406967611240E+08, -6.681118777466936E+07,
2461120.500000000, A.D. 2026-Mar-21 00:00:00.0000, 2.398427192316874E+08, -1.400145474686293E+08, -7.118222967147106E+07,
2461127.500000000, A.D. 2026-Mar-28 00:00:00.0000, 2.449397409477785E+08, -1.289000454149816E+08, -7.540665952027826E+07,
2461134.500000000, A.D. 2026-Apr-04 00:00:00.0000, 2.495332184456076E+08, -1.175205729850789E+08, -7.947606287552676E+07,
2461141.500000000, A.D. 2026-Apr-11 00:00:00.0000, 2.536146187793746E+08, -1.058999533716011E+08, -8.338236319267122E+07,
2461148.500000000, A.D. 2026-Apr-18 00:00:00.0000, 2.571764505073067E+08, -9.406240343397406E+07, -8.711783424322894E+07,
2461155.500000000, A.D. 2026-Apr-25 00:00:00.0000, 2.602122700434390E+08, -8.203248673277059E+07, -9.067511179393895E+07,
2461162.500000000, A.D. 2026-May-02 00:00:00.0000, 2.627166862957994E+08, -6.983506682687147E+07, -9.404720456754428E+07,
2461169.500000000, A.D. 2026-May-09 00:00:00.0000, 2.646853637673466E+08, -5.749526095335741E+07, -9.722750451391791E+07,
2461176.500000000, A.D. 2026-May-16 00:00:00.0000, 2.661150245420941E+08, -4.503839399653671E+07, -1.002097964225863E+08,
2461183.500000000, A.D. 2026-May-23 00:00:00.0000, 2.670034492567686E+08, -3.248995175449048E+07, -1.029882668063944E+08,
2461190.500000000, A.D. 2026-May-30 00:00:00.0000, 2.673494750404765E+08, -1.987553321588324E+07, -1.055575118588980E+08,
2461197.500000000, A.D. 2026-Jun-06 00:00:00.0000, 2.671529901557003E+08, -7.220805160259217E+06, -1.079125447421779E+08,
2461204.500000000, A.D. 2026-Jun-13 00:00:00.0000, 2.664149290409599E+08, 5.448541088555150E+06, -1.100488025331720E+08,
2461211.500000000, A.D. 2026-Jun-20 00:00:00.0000, 2.651372672903591E+08, 1.810683366377335E+07, -1.119621525521504E+08,
2461218.500000000, A.D. 2026-Jun-27 00:00:00.0000, 2.633230149106044E+08, 3.072846455442522E+07, -1.136488979575138E+08,
2461225.500000000, A.D. 2026-Jul-04 00:00:00.0000, 2.609762078907559E+08, 4.328793361016274E+07, -1.151057826820477E+08,
2461232.500000000, A.D. 2026-Jul-11 00:00:00.0000, 2.581018983694911E+08, 5.575989200590754E+07, -1.163299957550000E+08,
2461239.500000000, A.D. 2026-Jul-18 00:00:00.0000, 2.547061435195833E+08, 6.811918517999658E+07, -1.173191750253605E+08,
2461246.500000000, A.D. 2026-Jul-25 00:00:00.0000, 2.507959931975934E+08, 8.034089523834792E+07, -1.180714102962656E+08,
2461253.500000000, A.D. 2026-Aug-01 00:00:00.0000, 2.463794764276610E+08, 9.240038276783091E+07, -1.185852458863052E+08,
2461260.500000000, A.D. 2026-Aug-08 00:00:00.0000, 2.414655869531694E+08, 1.042733280137205E+08, -1.188596826478856E+08,
2461267.500000000, A.D. 2026-Aug-15 00:00:00.0000, 2.360642682851191E+08, 1.159357718571208E+08, -1.188941794473650E+08,
2461274.500000000, A.D. 2026-Aug-22 00:00:00.0000, 2.301863974874296E+08, 1.273641578007340E+08, -1.186886539306976E+08,
2461281.500000000, A.D. 2026-Aug-29 00:00:00.0000, 2.238437654138929E+08, 1.385353735920321E+08, -1.182434824776249E+08,
2461288.500000000, A.D. 2026-Sep-05 00:00:00.0000, 2.170490555462359E+08, 1.494267896074549E+08, -1.175594997860491E+08,
2461295.500000000, A.D. 2026-Sep-12 00:00:00.0000, 2.098158238898974E+08, 1.600162964712524E+08, -1.166379981042710E+08,
$$EOE